0 FENGYUN 1C DEB
1 38168U 99025ERR 13281.31831406  .00001488  00000-0  87129-3 0   747
2 38168 099.0550 305.8998 0055258 192.6966 167.3036 14.09115177198989
0 FENGYUN 1C DEB
1 38168U 99025ERR 13284.30055801  .00001572  00000-0  91906-3 0   759
2 38168 099.0537 308.8950 0053938 184.9059 175.1926 14.09126640199405
0 FENGYUN 1C DEB
1 38168U 99025ERR 13286.85674409  .00001618  00000-0  94480-3 0   764
2 38168 099.0549 311.4662 0055069 175.3579 184.8392 14.09136317199761
0 FENGYUN 1C DEB
1 38168U 99025ERR 13291.25902930  .00001670  00000-0  97415-3 0   777
2 38168 099.0529 315.8802 0054303 163.9217 196.4129 14.09152837200388
0 FENGYUN 1C DEB
1 38168U 99025ERR 13292.32408266  .00001727  00000-0  10067-2 0   780
2 38168 099.0530 316.9559 0054123 160.6078 199.7688 14.09158531200530
0 FENGYUN 1C DEB
1 38168U 99025ERR 13293.31812616  .00001812  00000-0  10560-2 0   792
2 38168 099.0529 317.9559 0051321 158.5873 201.8008 14.09164734200673
